[{"OBJECT_NAME":"STARLINK-2128","OBJECT_ID":"2021-005BH","EPOCH":"2025-08-02T11:27:55.797696","MEAN_MOTION":15.06387137,"ECCENTRICITY":0.000136,"INCLINATION":53.0556,"RA_OF_ASC_NODE":295.7008,"ARG_OF_PERICENTER":69.925,"MEAN_ANOMALY":290.1885,"EPHEMERIS_TYPE":0,"CLASSIFICATION_TYPE":"U","NORAD_CAT_ID":47404,"ELEMENT_SET_NO":999,"REV_AT_EPOCH":25042,"BSTAR":8.6066e-5,"MEAN_MOTION_DOT":1.0e-5,"MEAN_MOTION_DDOT":0},{"OBJECT_NAME":"STARLINK-2130","OBJECT_ID":"2021-005BJ","EPOCH":"2025-08-02T11:02:42.057600","MEAN_MOTION":15.06391468,"ECCENTRICITY":0.0001375,"INCLINATION":53.0559,"RA_OF_ASC_NODE":325.7816,"ARG_OF_PERICENTER":93.6951,"MEAN_ANOMALY":266.4195,"EPHEMERIS_TYPE":0,"CLASSIFICATION_TYPE":"U","NORAD_CAT_ID":47405,"ELEMENT_SET_NO":999,"REV_AT_EPOCH":24999,"BSTAR":-2.6262e-7,"MEAN_MOTION_DOT":-2.85e-6,"MEAN_MOTION_DDOT":0},{"OBJECT_NAME":"STARLINK-2133","OBJECT_ID":"2021-005BK","EPOCH":"2025-08-02T11:43:51.012768","MEAN_MOTION":15.06395859,"ECCENTRICITY":0.0001355,"INCLINATION":53.0559,"RA_OF_ASC_NODE":295.6526,"ARG_OF_PERICENTER":90.3715,"MEAN_ANOMALY":269.743,"EPHEMERIS_TYPE":0,"CLASSIFICATION_TYPE":"U","NORAD_CAT_ID":47406,"ELEMENT_SET_NO":999,"REV_AT_EPOCH":25104,"BSTAR":0.00017697,"MEAN_MOTION_DOT":2.355e-5,"MEAN_MOTION_DDOT":0},{"OBJECT_NAME":"STARLINK-2134","OBJECT_ID":"2021-005BL","EPOCH":"2025-08-02T11:54:27.504288","MEAN_MOTION":15.06387665,"ECCENTRICITY":0.0001388,"INCLINATION":53.0548,"RA_OF_ASC_NODE":295.6177,"ARG_OF_PERICENTER":91.4988,"MEAN_ANOMALY":268.616,"EPHEMERIS_TYPE":0,"CLASSIFICATION_TYPE":"U","NORAD_CAT_ID":47407,"ELEMENT_SET_NO":999,"REV_AT_EPOCH":25103,"BSTAR":-5.105e-5,"MEAN_MOTION_DOT":-1.041e-5,"MEAN_MOTION_DDOT":0},{"OBJECT_NAME":"STARLINK-2135","OBJECT_ID":"2021-005BM","EPOCH":"2025-08-02T14:23:04.127712","MEAN_MOTION":15.063908,"ECCENTRICITY":0.000151,"INCLINATION":53.0566,"RA_OF_ASC_NODE":295.1535,"ARG_OF_PERICENTER":68.6938,"MEAN_ANOMALY":291.4212,"EPHEMERIS_TYPE":0,"CLASSIFICATION_TYPE":"U","NORAD_CAT_ID":47408,"ELEMENT_SET_NO":999,"REV_AT_EPOCH":25044,"BSTAR":4.9502e-5,"MEAN_MOTION_DOT":4.56e-6,"MEAN_MOTION_DDOT":0},{"OBJECT_NAME":"STARLINK-1954","OBJECT_ID":"2021-009H","EPOCH":"2025-08-02T11:02:42.556992","MEAN_MOTION":15.06392817,"ECCENTRICITY":0.0001322,"INCLINATION":53.0548,"RA_OF_ASC_NODE":285.78,"ARG_OF_PERICENTER":91.9137,"MEAN_ANOMALY":268.2003,"EPHEMERIS_TYPE":0,"CLASSIFICATION_TYPE":"U","NORAD_CAT_ID":47555,"ELEMENT_SET_NO":999,"REV_AT_EPOCH":24775,"BSTAR":0.00010503,"MEAN_MOTION_DOT":1.283e-5,"MEAN_MOTION_DDOT":0},{"OBJECT_NAME":"STARLINK-1955","OBJECT_ID":"2021-009J","EPOCH":"2025-08-02T20:48:51.416928","MEAN_MOTION":15.25224844,"ECCENTRICITY":0.0004429,"INCLINATION":53.0609,"RA_OF_ASC_NODE":296.0218,"ARG_OF_PERICENTER":207.991,"MEAN_ANOMALY":152.085,"EPHEMERIS_TYPE":0,"CLASSIFICATION_TYPE":"U","NORAD_CAT_ID":47556,"ELEMENT_SET_NO":999,"REV_AT_EPOCH":24824,"BSTAR":0.0018133,"MEAN_MOTION_DOT":0.0004611,"MEAN_MOTION_DDOT":0},{"OBJECT_NAME":"STARLINK-1958","OBJECT_ID":"2021-009M","EPOCH":"2025-08-02T11:15:58.877280","MEAN_MOTION":15.06393469,"ECCENTRICITY":0.0001212,"INCLINATION":53.0548,"RA_OF_ASC_NODE":265.7374,"ARG_OF_PERICENTER":85.8298,"MEAN_ANOMALY":274.2829,"EPHEMERIS_TYPE":0,"CLASSIFICATION_TYPE":"U","NORAD_CAT_ID":47559,"ELEMENT_SET_NO":999,"REV_AT_EPOCH":24803,"BSTAR":0.00011194,"MEAN_MOTION_DOT":1.386e-5,"MEAN_MOTION_DDOT":0},{"OBJECT_NAME":"STARLINK-1962","OBJECT_ID":"2021-009R","EPOCH":"2025-08-02T11:39:51.518880","MEAN_MOTION":15.06390237,"ECCENTRICITY":0.0001208,"INCLINATION":53.0545,"RA_OF_ASC_NODE":285.6647,"ARG_OF_PERICENTER":78.3629,"MEAN_ANOMALY":281.7496,"EPHEMERIS_TYPE":0,"CLASSIFICATION_TYPE":"U","NORAD_CAT_ID":47563,"ELEMENT_SET_NO":999,"REV_AT_EPOCH":24836,"BSTAR":-0.00012301,"MEAN_MOTION_DOT":-2.113e-5,"MEAN_MOTION_DDOT":0},{"OBJECT_NAME":"STARLINK-1964","OBJECT_ID":"2021-009T","EPOCH":"2025-08-02T13:11:25.662048","MEAN_MOTION":15.06387744,"ECCENTRICITY":0.0001407,"INCLINATION":53.0555,"RA_OF_ASC_NODE":275.3823,"ARG_OF_PERICENTER":98.2801,"MEAN_ANOMALY":261.8348,"EPHEMERIS_TYPE":0,"CLASSIFICATION_TYPE":"U","NORAD_CAT_ID":47565,"ELEMENT_SET_NO":999,"REV_AT_EPOCH":24790,"BSTAR":8.5803e-5,"MEAN_MOTION_DOT":9.96e-6,"MEAN_MOTION_DDOT":0},{"OBJECT_NAME":"STARLINK-1965","OBJECT_ID":"2021-009U","EPOCH":"2025-08-02T12:10:22.148256","MEAN_MOTION":15.25783504,"ECCENTRICITY":0.000363,"INCLINATION":53.0335,"RA_OF_ASC_NODE":251.1377,"ARG_OF_PERICENTER":238.0508,"MEAN_ANOMALY":122.0136,"EPHEMERIS_TYPE":0,"CLASSIFICATION_TYPE":"U","NORAD_CAT_ID":47566,"ELEMENT_SET_NO":999,"REV_AT_EPOCH":24824,"BSTAR":0.0017018,"MEAN_MOTION_DOT":0.00043974,"MEAN_MOTION_DDOT":0},{"OBJECT_NAME":"STARLINK-1966","OBJECT_ID":"2021-009V","EPOCH":"2025-08-02T22:00:01.999584","MEAN_MOTION":15.92787402,"ECCENTRICITY":0.0010397,"INCLINATION":53.0174,"RA_OF_ASC_NODE":237.9665,"ARG_OF_PERICENTER":344.1854,"MEAN_ANOMALY":82.3864,"EPHEMERIS_TYPE":0,"CLASSIFICATION_TYPE":"U","NORAD_CAT_ID":47567,"ELEMENT_SET_NO":999,"REV_AT_EPOCH":24905,"BSTAR":0.00083369,"MEAN_MOTION_DOT":0.00293448,"MEAN_MOTION_DDOT":4.3858e-5},{"OBJECT_NAME":"STARLINK-1967","OBJECT_ID":"2021-009W","EPOCH":"2025-08-02T11:21:17.411616","MEAN_MOTION":15.06399442,"ECCENTRICITY":0.000141,"INCLINATION":53.0553,"RA_OF_ASC_NODE":305.7188,"ARG_OF_PERICENTER":98.8211,"MEAN_ANOMALY":261.2938,"EPHEMERIS_TYPE":0,"CLASSIFICATION_TYPE":"U","NORAD_CAT_ID":47568,"ELEMENT_SET_NO":999,"REV_AT_EPOCH":24747,"BSTAR":0.00026906,"MEAN_MOTION_DOT":3.728e-5,"MEAN_MOTION_DDOT":0},{"OBJECT_NAME":"STARLINK-1971","OBJECT_ID":"2021-009AA","EPOCH":"2025-08-02T10:58:43.567680","MEAN_MOTION":15.06392878,"ECCENTRICITY":0.0001152,"INCLINATION":53.0543,"RA_OF_ASC_NODE":275.7936,"ARG_OF_PERICENTER":64.2363,"MEAN_ANOMALY":295.8745,"EPHEMERIS_TYPE":0,"CLASSIFICATION_TYPE":"U","NORAD_CAT_ID":47572,"ELEMENT_SET_NO":999,"REV_AT_EPOCH":24789,"BSTAR":2.8129e-5,"MEAN_MOTION_DOT":1.38e-6,"MEAN_MOTION_DDOT":0},{"OBJECT_NAME":"STARLINK-1975","OBJECT_ID":"2021-009AB","EPOCH":"2025-08-02T13:40:40.437408","MEAN_MOTION":15.23288933,"ECCENTRICITY":0.0003952,"INCLINATION":53.0661,"RA_OF_ASC_NODE":271.8289,"ARG_OF_PERICENTER":353.975,"MEAN_ANOMALY":6.1199,"EPHEMERIS_TYPE":0,"CLASSIFICATION_TYPE":"U","NORAD_CAT_ID":47573,"ELEMENT_SET_NO":999,"REV_AT_EPOCH":24795,"BSTAR":0.001776,"MEAN_MOTION_DOT":0.00042585,"MEAN_MOTION_DDOT":0},{"OBJECT_NAME":"STARLINK-1978","OBJECT_ID":"2021-009AE","EPOCH":"2025-08-02T11:37:02.921376","MEAN_MOTION":15.32286946,"ECCENTRICITY":0.0006713,"INCLINATION":53.0567,"RA_OF_ASC_NODE":251.8175,"ARG_OF_PERICENTER":302.1731,"MEAN_ANOMALY":57.8618,"EPHEMERIS_TYPE":0,"CLASSIFICATION_TYPE":"U","NORAD_CAT_ID":47576,"ELEMENT_SET_NO":999,"REV_AT_EPOCH":24883,"BSTAR":0.0017357,"MEAN_MOTION_DOT":0.00054931,"MEAN_MOTION_DDOT":0}]
