STARLINK-2128           
1 47404U 21005BH  25214.47772914  .00001000  00000+0  86066-4 0  9992
2 47404  53.0556 295.7008 0001360  69.9250 290.1885 15.06387137250424
STARLINK-2130           
1 47405U 21005BJ  25214.46020900 -.00000285  00000+0 -26262-6 0  9993
2 47405  53.0559 325.7816 0001375  93.6951 266.4195 15.06391468249999
STARLINK-2133           
1 47406U 21005BK  25214.48878487  .00002355  00000+0  17697-3 0  9994
2 47406  53.0559 295.6526 0001355  90.3715 269.7430 15.06395859251048
STARLINK-2134           
1 47407U 21005BL  25214.49615167 -.00001041  00000+0 -51050-4 0  9995
2 47407  53.0548 295.6177 0001388  91.4988 268.6160 15.06387665251032
STARLINK-2135           
1 47408U 21005BM  25214.59935333  .00000456  00000+0  49502-4 0  9993
2 47408  53.0566 295.1535 0001510  68.6938 291.4212 15.06390800250445
STARLINK-1954           
1 47555U 21009H   25214.46021478  .00001283  00000+0  10503-3 0  9999
2 47555  53.0548 285.7800 0001322  91.9137 268.2003 15.06392817247759
STARLINK-1955           
1 47556U 21009J   25214.86726177  .00046110  00000+0  18133-2 0  9996
2 47556  53.0609 296.0218 0004429 207.9910 152.0850 15.25224844248245
STARLINK-1958           
1 47559U 21009M   25214.46943145  .00001386  00000+0  11194-3 0  9998
2 47559  53.0548 265.7374 0001212  85.8298 274.2829 15.06393469248034
STARLINK-1962           
1 47563U 21009R   25214.48601295 -.00002113  00000+0 -12301-3 0  9994
2 47563  53.0545 285.6647 0001208  78.3629 281.7496 15.06390237248369
STARLINK-1964           
1 47565U 21009T   25214.54960257  .00000996  00000+0  85803-4 0  9992
2 47565  53.0555 275.3823 0001407  98.2801 261.8348 15.06387744247901
STARLINK-1965           
1 47566U 21009U   25214.50720079  .00043974  00000+0  17018-2 0  9999
2 47566  53.0335 251.1377 0003630 238.0508 122.0136 15.25783504248248
STARLINK-1966           
1 47567U 21009V   25214.91668981  .00293448  43858-4  83369-3 0  9997
2 47567  53.0174 237.9665 0010397 344.1854  82.3864 15.92787402249054
STARLINK-1967           
1 47568U 21009W   25214.47311819  .00003728  00000+0  26906-3 0  9995
2 47568  53.0553 305.7188 0001410  98.8211 261.2938 15.06399442247478
STARLINK-1971           
1 47572U 21009AA  25214.45744870  .00000138  00000+0  28129-4 0  9997
2 47572  53.0543 275.7936 0001152  64.2363 295.8745 15.06392878247898
STARLINK-1975           
1 47573U 21009AB  25214.56991247  .00042585  00000+0  17760-2 0  9991
2 47573  53.0661 271.8289 0003952 353.9750   6.1199 15.23288933247954
STARLINK-1978           
1 47576U 21009AE  25214.48406159  .00054931  00000+0  17357-2 0  9998
2 47576  53.0567 251.8175 0006713 302.1731  57.8618 15.32286946248836
